S-NET D                 
1 43186U 18014G   26068.67448177  .00007488  00000+0  39707-3 0  9997
2 43186  97.5429 334.1221 0008811  15.2475 344.9021 15.15628721443684
TRANSPORTER-15 OBJECT L 
1 66676U 25276L   26068.66353295  .00006545  00000+0  32542-3 0  9992
2 66676  97.4247 143.7845 0005875   7.6723 352.4600 15.17958705 15305
