[{"OBJECT_NAME":"S-NET D","OBJECT_ID":"2018-014G","EPOCH":"2026-03-09T16:11:15.224928","MEAN_MOTION":15.15628721,"ECCENTRICITY":0.00088114,"INCLINATION":97.5429,"RA_OF_ASC_NODE":334.1221,"ARG_OF_PERICENTER":15.2475,"MEAN_ANOMALY":344.9021,"EPHEMERIS_TYPE":0,"CLASSIFICATION_TYPE":"U","NORAD_CAT_ID":43186,"ELEMENT_SET_NO":999,"REV_AT_EPOCH":44368,"BSTAR":0.00039706572,"MEAN_MOTION_DOT":7.488e-5,"MEAN_MOTION_DDOT":0},{"OBJECT_NAME":"TRANSPORTER-15 OBJECT L","OBJECT_ID":"2025-276L","EPOCH":"2026-03-09T15:55:29.246880","MEAN_MOTION":15.17958705,"ECCENTRICITY":0.00058754,"INCLINATION":97.4247,"RA_OF_ASC_NODE":143.7845,"ARG_OF_PERICENTER":7.6723,"MEAN_ANOMALY":352.46,"EPHEMERIS_TYPE":0,"CLASSIFICATION_TYPE":"U","NORAD_CAT_ID":66676,"ELEMENT_SET_NO":999,"REV_AT_EPOCH":1530,"BSTAR":0.00032541658,"MEAN_MOTION_DOT":6.545e-5,"MEAN_MOTION_DDOT":0}]
